GALAXY 37 (G-37)        
1 57493U 23112A   26200.52393407  .00000000  00000+0  00000+0 0  9998
2 57493   0.0232  58.7697 0002135  57.7561 242.4059  1.00270892 10861
LUDI TANCE-4 01A        
1 57624U 23120A   26200.49540505 -.00000180  00000+0  00000+0 0  9992
2 57624  15.0839 193.1658 0001622  10.9527   1.0822  1.00275323 10872
TJS-10                  
1 58204U 23169A   26199.82713059 -.00000257  00000+0  00000+0 0  9995
2 58204   2.6241  80.1128 0004093 113.4926 133.1890  1.00273021  9851
ZHONGXING-6E            
1 58253U 23172A   26200.35779580 -.00000366  00000+0  00000+0 0  9996
2 58253   0.0313  91.9638 0002926  19.0453  70.4510  1.00269836  9987
YAOGAN-41               
1 58582U 23197A   26200.50216507 -.00000365  00000+0  00000+0 0  9999
2 58582   3.0705 313.6601 0013978 200.5036  87.0423  1.00275372  9649
OVZON-3                 
1 58698U 24003A   26200.41817277  .00000047  00000+0  00000+0 0  9991
2 58698   0.0173 140.6609 0000049 299.6335  67.1318  1.00273524  7776
INSAT-3DS               
1 58990U 24033A   26200.60785777 -.00000159  00000+0  00000+0 0  9994
2 58990   0.0789 264.0378 0001239 221.2607 112.9793  1.00270801 47396
MERAH PUTIH 2           
1 58995U 24035A   26200.58796747  .00000000  00000+0  00000+0 0  9991
2 58995   0.0176  66.6900 0001261  44.3597 150.9532  1.00269747  8910
TJS-11                  
1 59020U 24037A   26199.83192948 -.00000368  00000+0  00000+0 0  9999
2 59020   4.1580 327.4843 0001946 153.5816 227.6369  1.00272441  8909
HULIANWAN GAOGUI-01 (H*)
1 59069U 24040A   26200.48432806  .00000151  00000+0  00000+0 0  9999
2 59069   0.0762 330.7390 0002018  71.3609 103.1673  1.00273619  7656
EUTELSAT 36D            
1 59346U 24059A   26200.27100160  .00000000  00000+0  00000+0 0  9992
2 59346   0.0226  66.4586 0000118  12.1168 351.9221  1.00269127  8462
PAKSAT-MM1              
1 59915U 24104A   26200.48528139  .00000149  00000+0  00000+0 0  9992
2 59915   0.0275 149.2568 0002160 309.8874  51.0085  1.00273304  7857
ASTRA 1P (SES-24)       
1 60086U 24115A   26200.55288087  .00000115  00000+0  00000+0 0  9991
2 60086   0.0679 329.0315 0000783 219.3802 327.1603  1.00267390  7524
GOES 19                 
1 60133U 24119A   26200.53416079 -.00000253  00000+0  00000+0 0  9994
2 60133   0.0189 142.1330 0000285  52.3537 219.9312  1.00272704  7284
ZHONGXING-3A            
1 60179U 24122A   26199.91926046 -.00000320  00000+0  00000+0 0  9992
2 60179   0.0292 137.1691 0001833  19.8104 212.2555  1.00273255  7626
TURKSAT 6A              
1 60233U 24127A   26200.20094711  .00000000  00000+0  00000+0 0  9992
2 60233   0.0174 182.0327 0003105 343.5032 245.7695  1.00271889  7337
HULIANWAN GAOGUI-02 (H*)
1 60327U 24135A   26200.15153279 -.00000179  00000+0  00000+0 0  9992
2 60327   0.0477 354.3317 0006169  15.7361 134.4616  1.00271644  7826
ZHONGXING-4A            
1 60606U 24151A   26200.57240780 -.00000366  00000+0  00000+0 0  9998
2 60606   1.2319 270.4404 0000109  17.3923 333.8064  1.00273443  7077
HULIANWAN GAOGUI-03 (H*)
1 61503U 24181A   26199.60758600 -.00000248  00000+0  00000+0 0  9993
2 61503   0.0522 356.0276 0001242 100.5593 341.4188  1.00270617  7142
DSN-3 (KIRAMEKI-3)      
1 61733U 24198A   26200.57760782 -.00000254  00000+0  00000+0 0  9996
2 61733   0.0496 250.8445 0001094 247.2200 151.3005  1.00271529  6244
KOREASAT 6A             
1 61910U 24206A   26200.57197447 -.00000366  00000+0  00000+0 0  9999
2 61910   0.0243 102.6967 0001000 337.2472 179.3326  1.00273339  6160
OPTUS-X (ADS-01)        
1 62006U 24212A   26200.55808919 -.00000148  00000+0  00000+0 0  9992
2 62006   0.0167  49.4635 0002340  88.3921 156.8008  1.00271964  6083
GSAT-N2 (GSAT-20)       
1 62028U 24214A   26200.56252777 -.00000023  00000+0  00000+0 0  9996
2 62028   0.0622 260.5833 0002700 149.2830 157.9209  1.00272233  6226
SXM-9                   
1 62259U 24234A   26200.53216744 -.00000209  00000+0  00000+0 0  9991
2 62259   0.0233 322.2078 0005100   1.3381  80.1830  1.00269430  5897
TJS-12                  
1 62374U 24246A   26200.63030997 -.00000236  00000+0  00000+0 0  9997
2 62374   0.6019 302.6430 0001890 101.8440 266.3157  1.00268341  5880
NUVIEW ALPHA            
1 62455U 24252B   26200.53260078 -.00000220  00000+0  00000+0 0  9991
2 62455   0.0395  17.4855 0001243  72.9150 315.5570  1.00272055  4142
AGILA                   
1 62456U 24252C   26200.43350554 -.00000188  00000+0  00000+0 0  9993
2 62456   0.0380 153.8812 0000735   0.3384  91.2339  1.00263710  5481
NUVIEW BRAVO            
1 62457U 24252D   26200.53260078 -.00000219  00000+0  00000+0 0  9991
2 62457   0.0675 169.5707 0001771 333.9915 262.3823  1.00272398  4112
THURAYA-4               
1 62483U 25001A   26200.27264828  .00000134  00000+0  00000+0 0  9996
2 62483   0.0222  76.3657 0000406 106.2565 256.9071  1.00274694  4490
SHIJIAN-25 (SJ-25)      
1 62485U 25002A   26199.82390307 -.00000358  00000+0  00000+0 0  9998
2 62485   5.1867  60.9651 0050886 176.5823 122.7745  1.00279843  5670
TJS-14                  
1 62804U 25017A   26200.26753492  .00000110  00000+0  00000+0 0  9993
2 62804   0.7116 298.0886 0001923 305.9058 167.7494  1.00269207  5597
SPAINSAT NG I           
1 62852U 25021A   26200.26961493  .00000146  00000+0  00000+0 0  9992
2 62852   0.0199  44.2032 0000101  21.1717 357.7232  1.00270747  4304
