OBJECT_NAME,OBJECT_ID,EPOCH,MEAN_MOTION,ECCENTRICITY,INCLINATION,RA_OF_ASC_NODE,ARG_OF_PERICENTER,MEAN_ANOMALY,EPHEMERIS_TYPE,CLASSIFICATION_TYPE,NORAD_CAT_ID,ELEMENT_SET_NO,REV_AT_EPOCH,BSTAR,MEAN_MOTION_DOT,MEAN_MOTION_DDOT
GALAXY 37 (G-37),2023-112A,2026-07-19T12:34:27.903648,1.00270892,.00021351,0.0232,58.7697,57.7561,242.4059,0,U,57493,999,1086,0,0,0
LUDI TANCE-4 01A,2023-120A,2026-07-19T11:53:22.996320,1.00275323,.00016222,15.0839,193.1658,10.9527,1.0822,0,U,57624,999,1087,0,-.18E-5,0
TJS-10,2023-169A,2026-07-18T19:51:04.082976,1.00273021,.0004093,2.6241,80.1128,113.4926,133.1890,0,U,58204,999,985,0,-.257E-5,0
ZHONGXING-6E,2023-172A,2026-07-19T08:35:13.557120,1.00269836,.00029267,0.0313,91.9638,19.0453,70.4510,0,U,58253,999,998,0,-.366E-5,0
YAOGAN-41,2023-197A,2026-07-19T12:03:07.062048,1.00275372,.00139782,3.0705,313.6601,200.5036,87.0423,0,U,58582,999,964,0,-.365E-5,0
OVZON-3,2024-003A,2026-07-19T10:02:10.127328,1.00273524,.00000499,0.0173,140.6609,299.6335,67.1318,0,U,58698,999,777,0,.47E-6,0
INSAT-3DS,2024-033A,2026-07-19T14:35:18.911328,1.00270801,.00012394,0.0789,264.0378,221.2607,112.9793,0,U,58990,999,4739,0,-.159E-5,0
MERAH PUTIH 2,2024-035A,2026-07-19T14:06:40.389408,1.00269747,.00012615,0.0176,66.6900,44.3597,150.9532,0,U,58995,999,891,0,0,0
TJS-11,2024-037A,2026-07-18T19:57:58.707072,1.00272441,.0001946,4.1580,327.4843,153.5816,227.6369,0,U,59020,999,890,0,-.368E-5,0
HULIANWAN GAOGUI-01 (HG-01),2024-040A,2026-07-19T11:37:25.944384,1.00273619,.00020184,0.0762,330.7390,71.3609,103.1673,0,U,59069,999,765,0,.151E-5,0
EUTELSAT 36D,2024-059A,2026-07-19T06:30:14.538240,1.00269127,.00001182,0.0226,66.4586,12.1168,351.9221,0,U,59346,999,846,0,0,0
PAKSAT-MM1,2024-104A,2026-07-19T11:38:48.312096,1.00273304,.00021603,0.0275,149.2568,309.8874,51.0085,0,U,59915,999,785,0,.149E-5,0
ASTRA 1P (SES-24),2024-115A,2026-07-19T13:16:08.907168,1.00267390,.00007833,0.0679,329.0315,219.3802,327.1603,0,U,60086,999,752,0,.115E-5,0
GOES 19,2024-119A,2026-07-19T12:49:11.492256,1.00272704,.00002851,0.0189,142.1330,52.3537,219.9312,0,U,60133,999,728,0,-.253E-5,0
ZHONGXING-3A,2024-122A,2026-07-18T22:03:44.103744,1.00273255,.0001833,0.0292,137.1691,19.8104,212.2555,0,U,60179,999,762,0,-.32E-5,0
TURKSAT 6A,2024-127A,2026-07-19T04:49:21.830304,1.00271889,.00031055,0.0174,182.0327,343.5032,245.7695,0,U,60233,999,733,0,0,0
HULIANWAN GAOGUI-02 (HG-02),2024-135A,2026-07-19T03:38:12.433056,1.00271644,.00061695,0.0477,354.3317,15.7361,134.4616,0,U,60327,999,782,0,-.179E-5,0
ZHONGXING-4A,2024-151A,2026-07-19T13:44:16.033920,1.00273443,.00001094,1.2319,270.4404,17.3923,333.8064,0,U,60606,999,707,0,-.366E-5,0
HULIANWAN GAOGUI-03 (HG-03),2024-181A,2026-07-18T14:34:55.430400,1.00270617,.0001242,0.0522,356.0276,100.5593,341.4188,0,U,61503,999,714,0,-.248E-5,0
DSN-3 (KIRAMEKI-3),2024-198A,2026-07-19T13:51:45.315648,1.00271529,.00010944,0.0496,250.8445,247.2200,151.3005,0,U,61733,999,624,0,-.254E-5,0
KOREASAT 6A,2024-206A,2026-07-19T13:43:38.594208,1.00273339,.00010009,0.0243,102.6967,337.2472,179.3326,0,U,61910,999,616,0,-.366E-5,0
OPTUS-X (ADS-01),2024-212A,2026-07-19T13:23:38.906016,1.00271964,.00023402,0.0167,49.4635,88.3921,156.8008,0,U,62006,999,608,0,-.148E-5,0
GSAT-N2 (GSAT-20),2024-214A,2026-07-19T13:30:02.399328,1.00272233,.00027008,0.0622,260.5833,149.2830,157.9209,0,U,62028,999,622,0,-.23E-6,0
SXM-9,2024-234A,2026-07-19T12:46:19.266816,1.00269430,.00051,0.0233,322.2078,1.3381,80.1830,0,U,62259,999,589,0,-.209E-5,0
TJS-12,2024-246A,2026-07-19T15:07:38.781408,1.00268341,.00018903,0.6019,302.6430,101.8440,266.3157,0,U,62374,999,588,0,-.236E-5,0
NUVIEW ALPHA,2024-252B,2026-07-19T12:46:56.707392,1.00272055,.00012431,0.0395,17.4855,72.9150,315.5570,0,U,62455,999,414,0,-.22E-5,0
AGILA,2024-252C,2026-07-19T10:24:14.878656,1.00263710,.00007353,0.0380,153.8812,0.3384,91.2339,0,U,62456,999,548,0,-.188E-5,0
NUVIEW BRAVO,2024-252D,2026-07-19T12:46:56.707392,1.00272398,.00017712,0.0675,169.5707,333.9915,262.3823,0,U,62457,999,411,0,-.219E-5,0
THURAYA-4,2025-001A,2026-07-19T06:32:36.811392,1.00274694,.00004067,0.0222,76.3657,106.2565,256.9071,0,U,62483,999,449,0,.134E-5,0
SHIJIAN-25 (SJ-25),2025-002A,2026-07-18T19:46:25.225248,1.00279843,.0050886,5.1867,60.9651,176.5823,122.7745,0,U,62485,999,567,0,-.358E-5,0
TJS-14,2025-017A,2026-07-19T06:25:15.017088,1.00269207,.00019235,0.7116,298.0886,305.9058,167.7494,0,U,62804,999,559,0,.11E-5,0
SPAINSAT NG I,2025-021A,2026-07-19T06:28:14.729952,1.00270747,.00001017,0.0199,44.2032,21.1717,357.7232,0,U,62852,999,430,0,.146E-5,0
